{
  "type": "FeatureCollection",
  "features": [
    {
      "type": "Feature",
      "properties": {
        "norad_id": 34641,
        "name": "COSMOS 2251 DEB",
        "group": "cosmos-2251-debris",
        "lat": 54.74878697552696,
        "lon": 79.83496300836075,
        "alt_km": 713.3381773303081,
        "timestamp": "2025-12-26T09:30:54.034860+00:00",
        "meta_object_name": "COSMOS 2251 DEB",
        "meta_object_id": "1993-036XN",
        "meta_epoch": "2025-12-25T03:37:10.772832",
        "meta_mean_motion": 14.52080579,
        "meta_eccentricity": 0.00190938,
        "meta_inclination": 73.836,
        "meta_ra_of_asc_node": 57.9813,
        "meta_arg_of_pericenter": 330.5665,
        "meta_mean_anomaly": 58.546,
        "meta_ephemeris_type": 0,
        "meta_classification_type": "U",
        "meta_norad_cat_id": 34641,
        "meta_element_set_no": 999,
        "meta_rev_at_epoch": 88436,
        "meta_bstar": 0.00073840717,
        "meta_mean_motion_dot": 2.967e-05,
        "meta_mean_motion_ddot": 0,
        "tle_line1": "1 34641U 93036XN  25359.15081913  .00002967  00000+0  73841-3 0  9990",
        "tle_line2": "2 34641  73.8360  57.9813 0019093 330.5665  58.5460 14.52080579884368"
      },
      "geometry": {
        "type": "Point",
        "coordinates": [
          79.83496300836075,
          54.74878697552696
        ]
      }
    },
    {
      "type": "Feature",
      "properties": {
        "norad_id": 34642,
        "name": "COSMOS 2251 DEB",
        "group": "cosmos-2251-debris",
        "lat": 50.50499132479401,
        "lon": -23.486591397830605,
        "alt_km": 861.3730465552135,
        "timestamp": "2025-12-26T09:30:54.034870+00:00",
        "meta_object_name": "COSMOS 2251 DEB",
        "meta_object_id": "1993-036XP",
        "meta_epoch": "2025-12-24T08:05:16.562400",
        "meta_mean_motion": 13.99004253,
        "meta_eccentricity": 0.0206477,
        "meta_inclination": 74.0043,
        "meta_ra_of_asc_node": 319.7125,
        "meta_arg_of_pericenter": 136.7937,
        "meta_mean_anomaly": 350.6828,
        "meta_ephemeris_type": 0,
        "meta_classification_type": "U",
        "meta_norad_cat_id": 34642,
        "meta_element_set_no": 999,
        "meta_rev_at_epoch": 85455,
        "meta_bstar": 0.00081021111,
        "meta_mean_motion_dot": 1.383e-05,
        "meta_mean_motion_ddot": 0,
        "tle_line1": "1 34642U 93036XP  25358.33699725  .00001383  00000+0  81021-3 0  9996",
        "tle_line2": "2 34642  74.0043 319.7125 0206477 136.7937 350.6828 13.99004253854554"
      },
      "geometry": {
        "type": "Point",
        "coordinates": [
          -23.486591397830605,
          50.50499132479401
        ]
      }
    },
    {
      "type": "Feature",
      "properties": {
        "norad_id": 34671,
        "name": "COSMOS 2251 DEB",
        "group": "cosmos-2251-debris",
        "lat": 1.3233587203703632,
        "lon": -72.44924105912624,
        "alt_km": 665.2603638924538,
        "timestamp": "2025-12-26T09:30:54.034881+00:00",
        "meta_object_name": "COSMOS 2251 DEB",
        "meta_object_id": "1993-036XR",
        "meta_epoch": "2025-12-24T07:45:05.041728",
        "meta_mean_motion": 14.67129194,
        "meta_eccentricity": 0.00105725,
        "meta_inclination": 74.0275,
        "meta_ra_of_asc_node": 111.9321,
        "meta_arg_of_pericenter": 193.4023,
        "meta_mean_anomaly": 198.0562,
        "meta_ephemeris_type": 0,
        "meta_classification_type": "U",
        "meta_norad_cat_id": 34671,
        "meta_element_set_no": 999,
        "meta_rev_at_epoch": 88467,
        "meta_bstar": 0.0017522099,
        "meta_mean_motion_dot": 9.84e-05,
        "meta_mean_motion_ddot": 0,
        "tle_line1": "1 34671U 93036XR  25358.32297502  .00009840  00000+0  17522-2 0  9994",
        "tle_line2": "2 34671  74.0275 111.9321 0010572 193.4023 198.0562 14.67129194884671"
      },
      "geometry": {
        "type": "Point",
        "coordinates": [
          -72.44924105912624,
          1.3233587203703632
        ]
      }
    },
    {
      "type": "Feature",
      "properties": {
        "norad_id": 34672,
        "name": "COSMOS 2251 DEB",
        "group": "cosmos-2251-debris",
        "lat": -62.18081138335213,
        "lon": -112.35661716546522,
        "alt_km": 767.487408495278,
        "timestamp": "2025-12-26T09:30:54.034891+00:00",
        "meta_object_name": "COSMOS 2251 DEB",
        "meta_object_id": "1993-036XS",
        "meta_epoch": "2025-12-23T01:39:52.431840",
        "meta_mean_motion": 14.36424251,
        "meta_eccentricity": 0.00243004,
        "meta_inclination": 74.0343,
        "meta_ra_of_asc_node": 286.6106,
        "meta_arg_of_pericenter": 356.389,
        "meta_mean_anomaly": 18.9966,
        "meta_ephemeris_type": 0,
        "meta_classification_type": "U",
        "meta_norad_cat_id": 34672,
        "meta_element_set_no": 999,
        "meta_rev_at_epoch": 65326,
        "meta_bstar": 0.00025150328,
        "meta_mean_motion_dot": 7.13e-06,
        "meta_mean_motion_ddot": 0,
        "tle_line1": "1 34672U 93036XS  25357.06935685  .00000713  00000+0  25150-3 0  9993",
        "tle_line2": "2 34672  74.0343 286.6106 0024300 356.3890  18.9966 14.36424251653260"
      },
      "geometry": {
        "type": "Point",
        "coordinates": [
          -112.35661716546522,
          -62.18081138335213
        ]
      }
    },
    {
      "type": "Feature",
      "properties": {
        "norad_id": 34678,
        "name": "COSMOS 2251 DEB",
        "group": "cosmos-2251-debris",
        "lat": 14.851626333016359,
        "lon": 156.51073338854943,
        "alt_km": 805.3251354319636,
        "timestamp": "2025-12-26T09:30:54.034902+00:00",
        "meta_object_name": "COSMOS 2251 DEB",
        "meta_object_id": "1993-036XY",
        "meta_epoch": "2025-12-26T00:40:23.591712",
        "meta_mean_motion": 14.30067313,
        "meta_eccentricity": 0.0024836,
        "meta_inclination": 74.0378,
        "meta_ra_of_asc_node": 341.533,
        "meta_arg_of_pericenter": 26.614,
        "meta_mean_anomaly": 41.7325,
        "meta_ephemeris_type": 0,
        "meta_classification_type": "U",
        "meta_norad_cat_id": 34678,
        "meta_element_set_no": 999,
        "meta_rev_at_epoch": 87569,
        "meta_bstar": 3.5826e-05,
        "meta_mean_motion_dot": 6.7e-07,
        "meta_mean_motion_ddot": 0,
        "tle_line1": "1 34678U 93036XY  25360.02805083  .00000067  00000+0  35826-4 0  9991",
        "tle_line2": "2 34678  74.0378 341.5330 0024836  26.6140  41.7325 14.30067313875695"
      },
      "geometry": {
        "type": "Point",
        "coordinates": [
          156.51073338854943,
          14.851626333016359
        ]
      }
    },
    {
      "type": "Feature",
      "properties": {
        "norad_id": 34680,
        "name": "COSMOS 2251 DEB",
        "group": "cosmos-2251-debris",
        "lat": 28.15612698410301,
        "lon": -85.02586692523643,
        "alt_km": 686.6022202056329,
        "timestamp": "2025-12-26T09:30:54.034912+00:00",
        "meta_object_name": "COSMOS 2251 DEB",
        "meta_object_id": "1993-036YA",
        "meta_epoch": "2025-12-25T08:26:00.964320",
        "meta_mean_motion": 14.60752772,
        "meta_eccentricity": 0.0006228,
        "meta_inclination": 74.0438,
        "meta_ra_of_asc_node": 105.7771,
        "meta_arg_of_pericenter": 207.8275,
        "meta_mean_anomaly": 209.3202,
        "meta_ephemeris_type": 0,
        "meta_classification_type": "U",
        "meta_norad_cat_id": 34680,
        "meta_element_set_no": 999,
        "meta_rev_at_epoch": 88512,
        "meta_bstar": 0.0011609,
        "meta_mean_motion_dot": 5.64e-05,
        "meta_mean_motion_ddot": 0,
        "tle_line1": "1 34680U 93036YA  25359.35140005  .00005640  00000+0  11609-2 0  9997",
        "tle_line2": "2 34680  74.0438 105.7771 0006228 207.8275 209.3202 14.60752772885129"
      },
      "geometry": {
        "type": "Point",
        "coordinates": [
          -85.02586692523643,
          28.15612698410301
        ]
      }
    },
    {
      "type": "Feature",
      "properties": {
        "norad_id": 34681,
        "name": "COSMOS 2251 DEB",
        "group": "cosmos-2251-debris",
        "lat": 50.1690139104859,
        "lon": -76.56641224586583,
        "alt_km": 614.838845607228,
        "timestamp": "2025-12-26T09:30:54.034923+00:00",
        "meta_object_name": "COSMOS 2251 DEB",
        "meta_object_id": "1993-036YB",
        "meta_epoch": "2025-12-26T03:21:35.852256",
        "meta_mean_motion": 14.83511809,
        "meta_eccentricity": 0.0025689,
        "meta_inclination": 74.0622,
        "meta_ra_of_asc_node": 263.9047,
        "meta_arg_of_pericenter": 318.6416,
        "meta_mean_anomaly": 165.0447,
        "meta_ephemeris_type": 0,
        "meta_classification_type": "U",
        "meta_norad_cat_id": 34681,
        "meta_element_set_no": 999,
        "meta_rev_at_epoch": 89469,
        "meta_bstar": 0.0011799,
        "meta_mean_motion_dot": 9.744e-05,
        "meta_mean_motion_ddot": 0,
        "tle_line1": "1 34681U 93036YB  25360.13999829  .00009744  00000+0  11799-2 0  9991",
        "tle_line2": "2 34681  74.0622 263.9047 0025689 318.6416 165.0447 14.83511809894698"
      },
      "geometry": {
        "type": "Point",
        "coordinates": [
          -76.56641224586583,
          50.1690139104859
        ]
      }
    }
  ]
}